start=new Date('2022-05-09T00:00:00.000Z').valueOf();
sats=[{"MEAN_ELEMENT_THEORY":"SGP4","CLASSIFICATION_TYPE":"U","NORAD_CAT_ID":"51812","SITE":"AFWTR","COUNTRY_CODE":"US","EPOCH":"2022-05-08T14:00:01.000224","APOAPSIS":"364.973","FILE":"3435746","REF_FRAME":"TEME","SEMIMAJOR_AXIS":"6742.338","OBJECT_ID":"2022-017AW","OBJECT_NAME":"STARLINK-3610","ECCENTRICITY":"0.00011430","PERIAPSIS":"363.432","ELEMENT_SET_NO":"999","TLE_LINE2":"2 51812  53.2171 147.6061 0001143  68.1586  50.1959 15.68147897  3699","REV_AT_EPOCH":"369","EPHEMERIS_TYPE":"0","ARG_OF_PERICENTER":"68.1586","MEAN_MOTION":"15.68147897","LAUNCH_DATE":"2022-02-25","MEAN_MOTION_DDOT":"0.0000000000000","MEAN_ANOMALY":"50.1959","DECAY_DATE":null,"TLE_LINE1":"1 51812U 22017AW  22128.58334491 -.00718084  00000-0 -68853-2 0  9993","TIME_SYSTEM":"UTC","BSTAR":"-0.00688530000000","OBJECT_TYPE":"PAYLOAD","PERIOD":"91.828","RA_OF_ASC_NODE":"147.6061","MEAN_MOTION_DOT":"-0.00718084","CENTER_NAME":"EARTH","GP_ID":"203018997","INCLINATION":"53.2171","RCS_SIZE":"LARGE"},{"MEAN_ELEMENT_THEORY":"SGP4","NORAD_CAT_ID":"51813","CLASSIFICATION_TYPE":"U","COUNTRY_CODE":"US","SITE":"AFWTR","FILE":"3435746","EPOCH":"2022-05-08T14:00:01.000224","APOAPSIS":"364.983","OBJECT_ID":"2022-017AX","SEMIMAJOR_AXIS":"6742.367","REF_FRAME":"TEME","ELEMENT_SET_NO":"999","PERIAPSIS":"363.481","ECCENTRICITY":"0.00011140","OBJECT_NAME":"STARLINK-3552","TLE_LINE2":"2 51813  53.2171 147.5667 0001114  70.1640  46.8151 15.68137559  3693","REV_AT_EPOCH":"369","EPHEMERIS_TYPE":"0","ARG_OF_PERICENTER":"70.1640","MEAN_MOTION":"15.68137559","LAUNCH_DATE":"2022-02-25","MEAN_MOTION_DDOT":"0.0000000000000","MEAN_ANOMALY":"46.8151","TIME_SYSTEM":"UTC","TLE_LINE1":"1 51813U 22017AX  22128.58334491 -.00718046  00000-0 -68879-2 0  9990","DECAY_DATE":null,"OBJECT_TYPE":"PAYLOAD","BSTAR":"-0.00688790000000","CENTER_NAME":"EARTH","MEAN_MOTION_DOT":"-0.00718046","PERIOD":"91.829","RA_OF_ASC_NODE":"147.5667","RCS_SIZE":"LARGE","INCLINATION":"53.2171","GP_ID":"203019094"},{"BSTAR":"-0.00688210000000","OBJECT_TYPE":"PAYLOAD","TLE_LINE1":"1 51814U 22017AY  22128.58334491 -.00718016  00000-0 -68821-2 0  9995","TIME_SYSTEM":"UTC","DECAY_DATE":null,"INCLINATION":"53.2171","GP_ID":"203019250","RCS_SIZE":"LARGE","CENTER_NAME":"EARTH","PERIOD":"91.828","MEAN_MOTION_DOT":"-0.00718016","RA_OF_ASC_NODE":"147.6102","ARG_OF_PERICENTER":"66.8941","EPHEMERIS_TYPE":"0","LAUNCH_DATE":"2022-02-25","MEAN_ANOMALY":"52.8377","MEAN_MOTION_DDOT":"0.0000000000000","MEAN_MOTION":"15.68156608","SEMIMAJOR_AXIS":"6742.313","OBJECT_ID":"2022-017AY","REF_FRAME":"TEME","FILE":"3435746","APOAPSIS":"364.952","EPOCH":"2022-05-08T14:00:01.000224","REV_AT_EPOCH":"369","TLE_LINE2":"2 51814  53.2171 147.6102 0001149  66.8941  52.8377 15.68156608  3696","ELEMENT_SET_NO":"999","PERIAPSIS":"363.403","OBJECT_NAME":"STARLINK-3599","ECCENTRICITY":"0.00011490","NORAD_CAT_ID":"51814","CLASSIFICATION_TYPE":"U","MEAN_ELEMENT_THEORY":"SGP4","SITE":"AFWTR","COUNTRY_CODE":"US"},{"MEAN_ELEMENT_THEORY":"SGP4","CLASSIFICATION_TYPE":"U","NORAD_CAT_ID":"51815","COUNTRY_CODE":"US","SITE":"AFWTR","FILE":"3435746","EPOCH":"2022-05-08T14:00:01.000224","APOAPSIS":"364.945","OBJECT_ID":"2022-017AZ","SEMIMAJOR_AXIS":"6742.325","REF_FRAME":"TEME","PERIAPSIS":"363.435","ELEMENT_SET_NO":"999","ECCENTRICITY":"0.00011200","OBJECT_NAME":"STARLINK-3604","TLE_LINE2":"2 51815  53.2172 147.6080 0001120  72.6370  46.4061 15.68152293  3698","REV_AT_EPOCH":"369","EPHEMERIS_TYPE":"0","ARG_OF_PERICENTER":"72.6370","MEAN_MOTION":"15.68152293","MEAN_ANOMALY":"46.4061","LAUNCH_DATE":"2022-02-25","MEAN_MOTION_DDOT":"0.0000000000000","TIME_SYSTEM":"UTC","TLE_LINE1":"1 51815U 22017AZ  22128.58334491 -.00718094  00000-0 -68842-2 0  9995","DECAY_DATE":null,"OBJECT_TYPE":"PAYLOAD","BSTAR":"-0.00688420000000","CENTER_NAME":"EARTH","MEAN_MOTION_DOT":"-0.00718094","PERIOD":"91.828","RA_OF_ASC_NODE":"147.6080","RCS_SIZE":"LARGE","INCLINATION":"53.2172","GP_ID":"203019173"},{"REV_AT_EPOCH":"369","TLE_LINE2":"2 51816  53.2172 147.6122 0001119  71.3477  49.0727 15.68161003  3695","ELEMENT_SET_NO":"999","PERIAPSIS":"363.411","ECCENTRICITY":"0.00011190","OBJECT_NAME":"STARLINK-3603","OBJECT_ID":"2022-017BA","SEMIMAJOR_AXIS":"6742.300","REF_FRAME":"TEME","FILE":"3435746","APOAPSIS":"364.919","EPOCH":"2022-05-08T14:00:01.000224","COUNTRY_CODE":"US","SITE":"AFWTR","NORAD_CAT_ID":"51816","CLASSIFICATION_TYPE":"U","MEAN_ELEMENT_THEORY":"SGP4","RCS_SIZE":"LARGE","INCLINATION":"53.2172","GP_ID":"203019335","CENTER_NAME":"EARTH","PERIOD":"91.827","RA_OF_ASC_NODE":"147.6122","MEAN_MOTION_DOT":"-0.00718081","OBJECT_TYPE":"PAYLOAD","BSTAR":"-0.00688160000000","TIME_SYSTEM":"UTC","TLE_LINE1":"1 51816U 22017BA  22128.58334491 -.00718081  00000-0 -68816-2 0  9993","DECAY_DATE":null,"MEAN_ANOMALY":"49.0727","LAUNCH_DATE":"2022-02-25","MEAN_MOTION_DDOT":"0.0000000000000","MEAN_MOTION":"15.68161003","ARG_OF_PERICENTER":"71.3477","EPHEMERIS_TYPE":"0"},{"CENTER_NAME":"EARTH","MEAN_MOTION_DOT":"0.00000868","PERIOD":"91.329","RA_OF_ASC_NODE":"142.4539","RCS_SIZE":"LARGE","GP_ID":"203019709","INCLINATION":"53.2159","TIME_SYSTEM":"UTC","TLE_LINE1":"1 51817U 22017BB  22128.76484711  .00000868  00000-0  93716-5 0  9990","DECAY_DATE":null,"OBJECT_TYPE":"PAYLOAD","BSTAR":"0.00000937160000","MEAN_MOTION":"15.76712163","LAUNCH_DATE":"2022-02-25","MEAN_ANOMALY":"77.9297","MEAN_MOTION_DDOT":"0.0000000000000","EPHEMERIS_TYPE":"0","ARG_OF_PERICENTER":"282.0773","PERIAPSIS":"334.065","ELEMENT_SET_NO":"999","ECCENTRICITY":"0.00084850","OBJECT_NAME":"STARLINK-3596","TLE_LINE2":"2 51817  53.2159 142.4539 0008485 282.0773  77.9297 15.76712163 12644","REV_AT_EPOCH":"1264","FILE":"3435780","EPOCH":"2022-05-08T18:21:22.790304","APOAPSIS":"345.466","OBJECT_ID":"2022-017BB","SEMIMAJOR_AXIS":"6717.900","REF_FRAME":"TEME","COUNTRY_CODE":"US","SITE":"AFWTR","MEAN_ELEMENT_THEORY":"SGP4","NORAD_CAT_ID":"51817","CLASSIFICATION_TYPE":"U"},{"PERIAPSIS":"538.626","ELEMENT_SET_NO":"999","ECCENTRICITY":"0.00017070","OBJECT_NAME":"STARLINK-3542","TLE_LINE2":"2 51852  53.2126 188.9358 0001707  17.7464 196.3299 15.08820039  3624","REV_AT_EPOCH":"362","FILE":"3435746","APOAPSIS":"540.987","EPOCH":"2022-05-08T14:00:01.000224","OBJECT_ID":"2022-022A","SEMIMAJOR_AXIS":"6917.941","REF_FRAME":"TEME","COUNTRY_CODE":"US","SITE":"AFETR","MEAN_ELEMENT_THEORY":"SGP4","NORAD_CAT_ID":"51852","CLASSIFICATION_TYPE":"U","CENTER_NAME":"EARTH","MEAN_MOTION_DOT":"0.00044163","PERIOD":"95.439","RA_OF_ASC_NODE":"188.9358","RCS_SIZE":"LARGE","INCLINATION":"53.2126","GP_ID":"203019177","TIME_SYSTEM":"UTC","TLE_LINE1":"1 51852U 22022A   22128.58334491  .00044163  00000-0  27771-2 0  9995","DECAY_DATE":null,"BSTAR":"0.00277710000000","OBJECT_TYPE":"PAYLOAD","MEAN_MOTION":"15.08820039","MEAN_MOTION_DDOT":"0.0000000000000","LAUNCH_DATE":"2022-03-03","MEAN_ANOMALY":"196.3299","EPHEMERIS_TYPE":"0","ARG_OF_PERICENTER":"17.7464"},{"OBJECT_TYPE":"PAYLOAD","BSTAR":"-0.00165940000000","DECAY_DATE":null,"TIME_SYSTEM":"UTC","TLE_LINE1":"1 51853U 22022B   22128.83334491 -.00026613  00000-0 -16594-2 0  9997","RCS_SIZE":"LARGE","GP_ID":"203025538","INCLINATION":"53.2124","MEAN_MOTION_DOT":"-0.00026613","PERIOD":"95.436","RA_OF_ASC_NODE":"187.8124","CENTER_NAME":"EARTH","ARG_OF_PERICENTER":"42.9516","EPHEMERIS_TYPE":"0","LAUNCH_DATE":"2022-03-03","MEAN_MOTION_DDOT":"0.0000000000000","MEAN_ANOMALY":"69.8544","MEAN_MOTION":"15.08857089","REF_FRAME":"TEME","OBJECT_ID":"2022-022B","SEMIMAJOR_AXIS":"6917.828","EPOCH":"2022-05-08T20:00:01.000224","APOAPSIS":"541.022","FILE":"3435997","REV_AT_EPOCH":"1147","TLE_LINE2":"2 51853  53.2124 187.8124 0001921  42.9516  69.8544 15.08857089 11472","ECCENTRICITY":"0.00019210","OBJECT_NAME":"STARLINK-3539","PERIAPSIS":"538.364","ELEMENT_SET_NO":"999","NORAD_CAT_ID":"51853","CLASSIFICATION_TYPE":"U","MEAN_ELEMENT_THEORY":"SGP4","COUNTRY_CODE":"US","SITE":"AFETR"},{"REV_AT_EPOCH":"1153","TLE_LINE2":"2 51854  53.2124 187.8093 0001801  37.6189 115.1807 15.08858077 11534","ELEMENT_SET_NO":"999","PERIAPSIS":"538.444","OBJECT_NAME":"STARLINK-3541","ECCENTRICITY":"0.00018010","SEMIMAJOR_AXIS":"6917.825","OBJECT_ID":"2022-022C","REF_FRAME":"TEME","FILE":"3436104","EPOCH":"2022-05-08T20:00:01.000224","APOAPSIS":"540.936","SITE":"AFETR","COUNTRY_CODE":"US","NORAD_CAT_ID":"51854","CLASSIFICATION_TYPE":"U","MEAN_ELEMENT_THEORY":"SGP4","INCLINATION":"53.2124","GP_ID":"203026441","RCS_SIZE":"LARGE","CENTER_NAME":"EARTH","PERIOD":"95.436","RA_OF_ASC_NODE":"187.8093","MEAN_MOTION_DOT":"-0.00045500","OBJECT_TYPE":"PAYLOAD","BSTAR":"-0.00285740000000","TLE_LINE1":"1 51854U 22022C   22128.83334491 -.00045500  00000-0 -28574-2 0  9995","TIME_SYSTEM":"UTC","DECAY_DATE":null,"MEAN_ANOMALY":"115.1807","LAUNCH_DATE":"2022-03-03","MEAN_MOTION_DDOT":"0.0000000000000","MEAN_MOTION":"15.08858077","ARG_OF_PERICENTER":"37.6189","EPHEMERIS_TYPE":"0"},{"EPHEMERIS_TYPE":"0","ARG_OF_PERICENTER":"43.5882","MEAN_MOTION":"15.08822833","LAUNCH_DATE":"2022-03-03","MEAN_MOTION_DDOT":"0.0000000000000","MEAN_ANOMALY":"230.5953","TIME_SYSTEM":"UTC","TLE_LINE1":"1 51855U 22022D   22128.58334491  .00027607  00000-0  17467-2 0  9993","DECAY_DATE":null,"OBJECT_TYPE":"PAYLOAD","BSTAR":"0.00174670000000","CENTER_NAME":"EARTH","MEAN_MOTION_DOT":"0.00027607","PERIOD":"95.439","RA_OF_ASC_NODE":"188.9326","RCS_SIZE":"LARGE","INCLINATION":"53.2120","GP_ID":"203018917","MEAN_ELEMENT_THEORY":"SGP4","NORAD_CAT_ID":"51855","CLASSIFICATION_TYPE":"U","COUNTRY_CODE":"US","SITE":"AFETR","FILE":"3435746","EPOCH":"2022-05-08T14:00:01.000224","APOAPSIS":"541.047","OBJECT_ID":"2022-022D","SEMIMAJOR_AXIS":"6917.933","REF_FRAME":"TEME","ELEMENT_SET_NO":"999","PERIAPSIS":"538.549","ECCENTRICITY":"0.00018050","OBJECT_NAME":"STARLINK-3545","TLE_LINE2":"2 51855  53.2120 188.9326 0001805  43.5882 230.5953 15.08822833  3628","REV_AT_EPOCH":"362"}];
